GAOFEN-1 04             
1 43262U 18031D   26087.60503148  .00001394  00000+0  20770-3 0  9995
2 43262  98.0609 150.3754 0001492  66.0475 294.0890 14.76474425430799
SENTINEL-3B             
1 43437U 18039A   26087.47017525  .00000125  00000+0  69866-4 0  9992
2 43437  98.6310 156.1393 0001432 117.4600 242.6727 14.26732840412618
GAOFEN-5 01             
1 43461U 18043A   26087.49806295  .00000464  00000+0  10558-3 0  9995
2 43461  98.4498  57.4269 0001633  14.5311 345.5935 14.60542755419910
GAOFEN-6                
1 43484U 18048A   26087.63443988  .00000976  00000+0  14661-3 0  9994
2 43484  97.7836 153.2432 0013659  79.2796 280.9952 14.76629309421503
GAOFEN-11 01            
1 43585U 18063A   26087.62371343  .00023791  00000+0  38392-3 0  9994
2 43585  97.1376 154.8389 0002316 265.0022  95.0968 15.52894724427835
ICESAT-2                
1 43613U 18070A   26087.55037440  .00003563  00000+0  12934-3 0  9992
2 43613  91.9996 269.2433 0004364  87.5253 272.6496 15.28264608420147
HYSIS                   
1 43719U 18096A   26087.61598797  .00001681  00000+0  23678-3 0  9997
2 43719  97.9906 154.9719 0001791  69.6982 290.4421 14.78603493395510
KAZSTSAT                
1 43783U 18099AB  26087.56862422  .00001638  00000+0  13740-3 0  9995
2 43783  97.4365 123.1190 0003932 312.6098  47.4794 14.99675139399228
SAUDISAT 5A             
1 43831U 18102A   26087.59590672  .00007165  00000+0  27113-3 0  9992
2 43831  97.3155 150.7467 0011250  65.1615 295.0793 15.27181790403377
SAUDISAT 5B             
1 43833U 18102C   26087.62944068  .00006455  00000+0  24231-3 0  9999
2 43833  97.3253 153.7048 0012001  66.8049 293.4453 15.27481665403492
GAOFEN-10R              
1 44622U 19066A   26087.59054626  .00001588  00000+0  20279-3 0  9994
2 44622  98.0425  40.6287 0006760  48.4100 311.7692 14.82858515350432
CARTOSAT-3              
1 44804U 19081A   26087.60598104  .00005060  00000+0  24310-3 0  9998
2 44804  97.4391 150.7351 0013420  76.2986 283.9742 15.19201564351238
GAOFEN-12 01            
1 44819U 19082A   26087.58066282  .00000521  00000+0  74839-4 0  9998
2 44819  97.8135  96.0826 0000825  55.9910 304.1380 14.80386928342160
CSG-1                   
1 44873U 19092A   26087.57879985  .00000583  00000+0  79726-4 0  9998
2 44873  97.8879 272.3446 0001356  86.1013 274.0355 14.82155288339531
NEMO-HD                 
1 46277U 20061F   26087.62478287  .00012389  00000+0  28355-3 0  9990
2 46277  97.2010 150.4548 0001389  65.9749 294.1645 15.42934814309559
SENTINEL-6A             
1 46984U 20086A   26087.58922845 -.00000032  00000+0  12655-3 0  9990
2 46984  66.0411 302.4587 0007718 270.7821  89.2309 12.80930380250002
GAOFEN-12 02            
1 48079U 21026A   26087.58317080  .00000508  00000+0  73702-4 0  9999
2 48079  97.9928  86.1008 0005929 125.7084 234.4681 14.80224761269830
