[{"OBJECT_NAME":"GAOFEN-1 04","OBJECT_ID":"2018-031D","EPOCH":"2026-03-28T14:31:14.719872","MEAN_MOTION":14.76474425,"ECCENTRICITY":0.0001492,"INCLINATION":98.0609,"RA_OF_ASC_NODE":150.3754,"ARG_OF_PERICENTER":66.0475,"MEAN_ANOMALY":294.089,"EPHEMERIS_TYPE":0,"CLASSIFICATION_TYPE":"U","NORAD_CAT_ID":43262,"ELEMENT_SET_NO":999,"REV_AT_EPOCH":43079,"BSTAR":0.00020769529,"MEAN_MOTION_DOT":1.394e-5,"MEAN_MOTION_DDOT":0},{"OBJECT_NAME":"SENTINEL-3B","OBJECT_ID":"2018-039A","EPOCH":"2026-03-28T11:17:03.141600","MEAN_MOTION":14.2673284,"ECCENTRICITY":0.00014328,"INCLINATION":98.631,"RA_OF_ASC_NODE":156.1393,"ARG_OF_PERICENTER":117.46,"MEAN_ANOMALY":242.6727,"EPHEMERIS_TYPE":0,"CLASSIFICATION_TYPE":"U","NORAD_CAT_ID":43437,"ELEMENT_SET_NO":999,"REV_AT_EPOCH":41261,"BSTAR":6.9865627e-5,"MEAN_MOTION_DOT":1.25e-6,"MEAN_MOTION_DDOT":0},{"OBJECT_NAME":"GAOFEN-5 01","OBJECT_ID":"2018-043A","EPOCH":"2026-03-28T11:57:12.638880","MEAN_MOTION":14.60542755,"ECCENTRICITY":0.0001633,"INCLINATION":98.4498,"RA_OF_ASC_NODE":57.4269,"ARG_OF_PERICENTER":14.5311,"MEAN_ANOMALY":345.5935,"EPHEMERIS_TYPE":0,"CLASSIFICATION_TYPE":"U","NORAD_CAT_ID":43461,"ELEMENT_SET_NO":999,"REV_AT_EPOCH":41991,"BSTAR":0.00010558,"MEAN_MOTION_DOT":4.64e-6,"MEAN_MOTION_DDOT":0},{"OBJECT_NAME":"GAOFEN-6","OBJECT_ID":"2018-048A","EPOCH":"2026-03-28T15:13:35.605632","MEAN_MOTION":14.76629309,"ECCENTRICITY":0.00136598,"INCLINATION":97.7836,"RA_OF_ASC_NODE":153.2432,"ARG_OF_PERICENTER":79.2796,"MEAN_ANOMALY":280.9952,"EPHEMERIS_TYPE":0,"CLASSIFICATION_TYPE":"U","NORAD_CAT_ID":43484,"ELEMENT_SET_NO":999,"REV_AT_EPOCH":42150,"BSTAR":0.00014660715,"MEAN_MOTION_DOT":9.76e-6,"MEAN_MOTION_DDOT":0},{"OBJECT_NAME":"GAOFEN-11 01","OBJECT_ID":"2018-063A","EPOCH":"2026-03-28T14:58:08.840352","MEAN_MOTION":15.52894724,"ECCENTRICITY":0.00023163,"INCLINATION":97.1376,"RA_OF_ASC_NODE":154.8389,"ARG_OF_PERICENTER":265.0022,"MEAN_ANOMALY":95.0968,"EPHEMERIS_TYPE":0,"CLASSIFICATION_TYPE":"U","NORAD_CAT_ID":43585,"ELEMENT_SET_NO":999,"REV_AT_EPOCH":42783,"BSTAR":0.0003839152,"MEAN_MOTION_DOT":0.00023791,"MEAN_MOTION_DDOT":0},{"OBJECT_NAME":"ICESAT-2","OBJECT_ID":"2018-070A","EPOCH":"2026-03-28T13:12:32.348160","MEAN_MOTION":15.28264608,"ECCENTRICITY":0.00043646,"INCLINATION":91.9996,"RA_OF_ASC_NODE":269.2433,"ARG_OF_PERICENTER":87.5253,"MEAN_ANOMALY":272.6496,"EPHEMERIS_TYPE":0,"CLASSIFICATION_TYPE":"U","NORAD_CAT_ID":43613,"ELEMENT_SET_NO":999,"REV_AT_EPOCH":42014,"BSTAR":0.00012933678,"MEAN_MOTION_DOT":3.563e-5,"MEAN_MOTION_DDOT":0},{"OBJECT_NAME":"HYSIS","OBJECT_ID":"2018-096A","EPOCH":"2026-03-28T14:47:01.360608","MEAN_MOTION":14.78603493,"ECCENTRICITY":0.00017917,"INCLINATION":97.9906,"RA_OF_ASC_NODE":154.9719,"ARG_OF_PERICENTER":69.6982,"MEAN_ANOMALY":290.4421,"EPHEMERIS_TYPE":0,"CLASSIFICATION_TYPE":"U","NORAD_CAT_ID":43719,"ELEMENT_SET_NO":999,"REV_AT_EPOCH":39551,"BSTAR":0.00023678004,"MEAN_MOTION_DOT":1.681e-5,"MEAN_MOTION_DDOT":0},{"OBJECT_NAME":"KAZSTSAT","OBJECT_ID":"2018-099AB","EPOCH":"2026-03-28T13:38:49.132608","MEAN_MOTION":14.99675139,"ECCENTRICITY":0.00039326,"INCLINATION":97.4365,"RA_OF_ASC_NODE":123.119,"ARG_OF_PERICENTER":312.6098,"MEAN_ANOMALY":47.4794,"EPHEMERIS_TYPE":0,"CLASSIFICATION_TYPE":"U","NORAD_CAT_ID":43783,"ELEMENT_SET_NO":999,"REV_AT_EPOCH":39922,"BSTAR":0.00013740188,"MEAN_MOTION_DOT":1.638e-5,"MEAN_MOTION_DDOT":0},{"OBJECT_NAME":"SAUDISAT 5A","OBJECT_ID":"2018-102A","EPOCH":"2026-03-28T14:18:06.340608","MEAN_MOTION":15.2718179,"ECCENTRICITY":0.00112501,"INCLINATION":97.3155,"RA_OF_ASC_NODE":150.7467,"ARG_OF_PERICENTER":65.1615,"MEAN_ANOMALY":295.0793,"EPHEMERIS_TYPE":0,"CLASSIFICATION_TYPE":"U","NORAD_CAT_ID":43831,"ELEMENT_SET_NO":999,"REV_AT_EPOCH":40337,"BSTAR":0.00027113234,"MEAN_MOTION_DOT":7.165e-5,"MEAN_MOTION_DDOT":0},{"OBJECT_NAME":"SAUDISAT 5B","OBJECT_ID":"2018-102C","EPOCH":"2026-03-28T15:06:23.674752","MEAN_MOTION":15.27481665,"ECCENTRICITY":0.00120017,"INCLINATION":97.3253,"RA_OF_ASC_NODE":153.7048,"ARG_OF_PERICENTER":66.8049,"MEAN_ANOMALY":293.4453,"EPHEMERIS_TYPE":0,"CLASSIFICATION_TYPE":"U","NORAD_CAT_ID":43833,"ELEMENT_SET_NO":999,"REV_AT_EPOCH":40349,"BSTAR":0.00024230736,"MEAN_MOTION_DOT":6.455e-5,"MEAN_MOTION_DDOT":0},{"OBJECT_NAME":"GAOFEN-10R","OBJECT_ID":"2019-066A","EPOCH":"2026-03-28T14:10:23.196864","MEAN_MOTION":14.82858515,"ECCENTRICITY":0.00067606,"INCLINATION":98.0425,"RA_OF_ASC_NODE":40.6287,"ARG_OF_PERICENTER":48.41,"MEAN_ANOMALY":311.7692,"EPHEMERIS_TYPE":0,"CLASSIFICATION_TYPE":"U","NORAD_CAT_ID":44622,"ELEMENT_SET_NO":999,"REV_AT_EPOCH":35043,"BSTAR":0.00020279207,"MEAN_MOTION_DOT":1.588e-5,"MEAN_MOTION_DDOT":0},{"OBJECT_NAME":"CARTOSAT-3","OBJECT_ID":"2019-081A","EPOCH":"2026-03-28T14:32:36.761856","MEAN_MOTION":15.19201564,"ECCENTRICITY":0.00134204,"INCLINATION":97.4391,"RA_OF_ASC_NODE":150.7351,"ARG_OF_PERICENTER":76.2986,"MEAN_ANOMALY":283.9742,"EPHEMERIS_TYPE":0,"CLASSIFICATION_TYPE":"U","NORAD_CAT_ID":44804,"ELEMENT_SET_NO":999,"REV_AT_EPOCH":35123,"BSTAR":0.00024310404,"MEAN_MOTION_DOT":5.06e-5,"MEAN_MOTION_DDOT":0},{"OBJECT_NAME":"GAOFEN-12 01","OBJECT_ID":"2019-082A","EPOCH":"2026-03-28T13:56:09.267648","MEAN_MOTION":14.80386928,"ECCENTRICITY":8.258e-5,"INCLINATION":97.8135,"RA_OF_ASC_NODE":96.0826,"ARG_OF_PERICENTER":55.991,"MEAN_ANOMALY":304.138,"EPHEMERIS_TYPE":0,"CLASSIFICATION_TYPE":"U","NORAD_CAT_ID":44819,"ELEMENT_SET_NO":999,"REV_AT_EPOCH":34216,"BSTAR":7.4838868e-5,"MEAN_MOTION_DOT":5.21e-6,"MEAN_MOTION_DDOT":0},{"OBJECT_NAME":"CSG-1","OBJECT_ID":"2019-092A","EPOCH":"2026-03-28T13:53:28.307040","MEAN_MOTION":14.82155288,"ECCENTRICITY":0.00013566,"INCLINATION":97.8879,"RA_OF_ASC_NODE":272.3446,"ARG_OF_PERICENTER":86.1013,"MEAN_ANOMALY":274.0355,"EPHEMERIS_TYPE":0,"CLASSIFICATION_TYPE":"U","NORAD_CAT_ID":44873,"ELEMENT_SET_NO":999,"REV_AT_EPOCH":33953,"BSTAR":7.9725891e-5,"MEAN_MOTION_DOT":5.83e-6,"MEAN_MOTION_DDOT":0},{"OBJECT_NAME":"NEMO-HD","OBJECT_ID":"2020-061F","EPOCH":"2026-03-28T14:59:41.239968","MEAN_MOTION":15.42934814,"ECCENTRICITY":0.00013892,"INCLINATION":97.201,"RA_OF_ASC_NODE":150.4548,"ARG_OF_PERICENTER":65.9749,"MEAN_ANOMALY":294.1645,"EPHEMERIS_TYPE":0,"CLASSIFICATION_TYPE":"U","NORAD_CAT_ID":46277,"ELEMENT_SET_NO":999,"REV_AT_EPOCH":30955,"BSTAR":0.00028354617,"MEAN_MOTION_DOT":0.00012389,"MEAN_MOTION_DDOT":0},{"OBJECT_NAME":"SENTINEL-6A","OBJECT_ID":"2020-086A","EPOCH":"2026-03-28T14:08:29.338080","MEAN_MOTION":12.8093038,"ECCENTRICITY":0.00077186,"INCLINATION":66.0411,"RA_OF_ASC_NODE":302.4587,"ARG_OF_PERICENTER":270.7821,"MEAN_ANOMALY":89.2309,"EPHEMERIS_TYPE":0,"CLASSIFICATION_TYPE":"U","NORAD_CAT_ID":46984,"ELEMENT_SET_NO":999,"REV_AT_EPOCH":25000,"BSTAR":0.00012655133,"MEAN_MOTION_DOT":-3.2e-7,"MEAN_MOTION_DDOT":0},{"OBJECT_NAME":"GAOFEN-12 02","OBJECT_ID":"2021-026A","EPOCH":"2026-03-28T13:59:45.957120","MEAN_MOTION":14.80224761,"ECCENTRICITY":0.00059296,"INCLINATION":97.9928,"RA_OF_ASC_NODE":86.1008,"ARG_OF_PERICENTER":125.7084,"MEAN_ANOMALY":234.4681,"EPHEMERIS_TYPE":0,"CLASSIFICATION_TYPE":"U","NORAD_CAT_ID":48079,"ELEMENT_SET_NO":999,"REV_AT_EPOCH":26983,"BSTAR":7.3701909e-5,"MEAN_MOTION_DOT":5.08e-6,"MEAN_MOTION_DDOT":0}]
